[{"OBJECT_NAME":"HULIANWANG DIGUI-113","OBJECT_ID":"2025-285J","EPOCH":"2026-03-29T04:38:38.468256","MEAN_MOTION":13.29332739,"ECCENTRICITY":4.53e-5,"INCLINATION":50.0091,"RA_OF_ASC_NODE":72.5697,"ARG_OF_PERICENTER":9.8835,"MEAN_ANOMALY":350.2046,"EPHEMERIS_TYPE":0,"CLASSIFICATION_TYPE":"U","NORAD_CAT_ID":66923,"ELEMENT_SET_NO":999,"REV_AT_EPOCH":1542,"BSTAR":8.8161e-5,"MEAN_MOTION_DOT":-8.3e-7,"MEAN_MOTION_DDOT":0},{"OBJECT_NAME":"HULIANWANG DIGUI-114","OBJECT_ID":"2025-287A","EPOCH":"2026-03-29T03:16:25.980384","MEAN_MOTION":13.24417623,"ECCENTRICITY":0.0001837,"INCLINATION":86.4928,"RA_OF_ASC_NODE":309.4406,"ARG_OF_PERICENTER":74.8031,"MEAN_ANOMALY":285.3306,"EPHEMERIS_TYPE":0,"CLASSIFICATION_TYPE":"U","NORAD_CAT_ID":66953,"ELEMENT_SET_NO":999,"REV_AT_EPOCH":1474,"BSTAR":5.199e-5,"MEAN_MOTION_DOT":3.7e-7,"MEAN_MOTION_DDOT":0},{"OBJECT_NAME":"HULIANWANG DIGUI-115","OBJECT_ID":"2025-287B","EPOCH":"2026-03-29T03:05:31.523712","MEAN_MOTION":13.24417873,"ECCENTRICITY":0.0001861,"INCLINATION":86.4944,"RA_OF_ASC_NODE":309.4559,"ARG_OF_PERICENTER":72.4929,"MEAN_ANOMALY":287.6408,"EPHEMERIS_TYPE":0,"CLASSIFICATION_TYPE":"U","NORAD_CAT_ID":66954,"ELEMENT_SET_NO":999,"REV_AT_EPOCH":1474,"BSTAR":8.752e-5,"MEAN_MOTION_DOT":5.2e-7,"MEAN_MOTION_DDOT":0},{"OBJECT_NAME":"HULIANWANG DIGUI-116","OBJECT_ID":"2025-287C","EPOCH":"2026-03-29T02:54:39.213216","MEAN_MOTION":13.24418017,"ECCENTRICITY":0.0001849,"INCLINATION":86.4884,"RA_OF_ASC_NODE":309.3812,"ARG_OF_PERICENTER":71.9494,"MEAN_ANOMALY":288.1842,"EPHEMERIS_TYPE":0,"CLASSIFICATION_TYPE":"U","NORAD_CAT_ID":66955,"ELEMENT_SET_NO":999,"REV_AT_EPOCH":1474,"BSTAR":9.8884e-5,"MEAN_MOTION_DOT":5.7e-7,"MEAN_MOTION_DDOT":0},{"OBJECT_NAME":"HULIANWANG DIGUI-117","OBJECT_ID":"2025-287D","EPOCH":"2026-03-29T02:43:52.925664","MEAN_MOTION":13.24416208,"ECCENTRICITY":6.06e-5,"INCLINATION":86.4944,"RA_OF_ASC_NODE":309.4494,"ARG_OF_PERICENTER":143.5797,"MEAN_ANOMALY":216.5379,"EPHEMERIS_TYPE":0,"CLASSIFICATION_TYPE":"U","NORAD_CAT_ID":66956,"ELEMENT_SET_NO":999,"REV_AT_EPOCH":1474,"BSTAR":0.0001618,"MEAN_MOTION_DOT":8.4e-7,"MEAN_MOTION_DDOT":0},{"OBJECT_NAME":"HULIANWANG DIGUI-118","OBJECT_ID":"2025-287E","EPOCH":"2026-03-29T04:21:44.036352","MEAN_MOTION":13.24417495,"ECCENTRICITY":0.0001847,"INCLINATION":86.492,"RA_OF_ASC_NODE":309.3923,"ARG_OF_PERICENTER":72.516,"MEAN_ANOMALY":287.6176,"EPHEMERIS_TYPE":0,"CLASSIFICATION_TYPE":"U","NORAD_CAT_ID":66957,"ELEMENT_SET_NO":999,"REV_AT_EPOCH":1475,"BSTAR":0.00017,"MEAN_MOTION_DOT":8.8e-7,"MEAN_MOTION_DDOT":0},{"OBJECT_NAME":"HULIANWANG DIGUI-119","OBJECT_ID":"2025-295A","EPOCH":"2026-03-29T03:58:30.901152","MEAN_MOTION":13.29322821,"ECCENTRICITY":1.04e-5,"INCLINATION":50.0042,"RA_OF_ASC_NODE":312.7877,"ARG_OF_PERICENTER":131.1671,"MEAN_ANOMALY":228.921,"EPHEMERIS_TYPE":0,"CLASSIFICATION_TYPE":"U","NORAD_CAT_ID":67059,"ELEMENT_SET_NO":999,"REV_AT_EPOCH":1485,"BSTAR":0.00013942,"MEAN_MOTION_DOT":-5.9e-7,"MEAN_MOTION_DDOT":0},{"OBJECT_NAME":"HULIANWANG DIGUI-120","OBJECT_ID":"2025-295B","EPOCH":"2026-03-29T03:34:27.269472","MEAN_MOTION":13.29322811,"ECCENTRICITY":6.3e-6,"INCLINATION":50.0048,"RA_OF_ASC_NODE":312.706,"ARG_OF_PERICENTER":143.328,"MEAN_ANOMALY":216.7596,"EPHEMERIS_TYPE":0,"CLASSIFICATION_TYPE":"U","NORAD_CAT_ID":67060,"ELEMENT_SET_NO":999,"REV_AT_EPOCH":1485,"BSTAR":0.00014089,"MEAN_MOTION_DOT":-5.9e-7,"MEAN_MOTION_DDOT":0},{"OBJECT_NAME":"HULIANWANG DIGUI-121","OBJECT_ID":"2025-295C","EPOCH":"2026-03-29T03:46:29.324640","MEAN_MOTION":13.2932267,"ECCENTRICITY":9.2e-6,"INCLINATION":50.0009,"RA_OF_ASC_NODE":312.7075,"ARG_OF_PERICENTER":127.899,"MEAN_ANOMALY":232.189,"EPHEMERIS_TYPE":0,"CLASSIFICATION_TYPE":"U","NORAD_CAT_ID":67061,"ELEMENT_SET_NO":999,"REV_AT_EPOCH":1485,"BSTAR":0.00014184,"MEAN_MOTION_DOT":-5.8e-7,"MEAN_MOTION_DDOT":0},{"OBJECT_NAME":"HULIANWANG DIGUI-122","OBJECT_ID":"2025-295D","EPOCH":"2026-03-29T03:22:26.018688","MEAN_MOTION":13.29324231,"ECCENTRICITY":9.5e-6,"INCLINATION":50.0043,"RA_OF_ASC_NODE":312.6573,"ARG_OF_PERICENTER":125.8757,"MEAN_ANOMALY":234.2124,"EPHEMERIS_TYPE":0,"CLASSIFICATION_TYPE":"U","NORAD_CAT_ID":67062,"ELEMENT_SET_NO":999,"REV_AT_EPOCH":1485,"BSTAR":0.00014906,"MEAN_MOTION_DOT":-5.5e-7,"MEAN_MOTION_DDOT":0},{"OBJECT_NAME":"HULIANWANG DIGUI-123","OBJECT_ID":"2025-295E","EPOCH":"2026-03-29T03:10:24.391200","MEAN_MOTION":13.29323689,"ECCENTRICITY":9.7e-6,"INCLINATION":50.0043,"RA_OF_ASC_NODE":312.617,"ARG_OF_PERICENTER":124.6073,"MEAN_ANOMALY":235.4808,"EPHEMERIS_TYPE":0,"CLASSIFICATION_TYPE":"U","NORAD_CAT_ID":67063,"ELEMENT_SET_NO":999,"REV_AT_EPOCH":1485,"BSTAR":0.00015686,"MEAN_MOTION_DOT":-5.1e-7,"MEAN_MOTION_DDOT":0},{"OBJECT_NAME":"HULIANWANG DIGUI-124","OBJECT_ID":"2025-295F","EPOCH":"2026-03-29T02:58:22.639296","MEAN_MOTION":13.2932123,"ECCENTRICITY":6.8e-6,"INCLINATION":50.0003,"RA_OF_ASC_NODE":312.5276,"ARG_OF_PERICENTER":121.9089,"MEAN_ANOMALY":238.1789,"EPHEMERIS_TYPE":0,"CLASSIFICATION_TYPE":"U","NORAD_CAT_ID":67064,"ELEMENT_SET_NO":999,"REV_AT_EPOCH":1485,"BSTAR":0.00015738,"MEAN_MOTION_DOT":-5.1e-7,"MEAN_MOTION_DDOT":0},{"OBJECT_NAME":"HULIANWANG DIGUI-125","OBJECT_ID":"2025-295G","EPOCH":"2026-03-29T02:46:20.163360","MEAN_MOTION":13.29321856,"ECCENTRICITY":1.12e-5,"INCLINATION":49.9994,"RA_OF_ASC_NODE":312.4747,"ARG_OF_PERICENTER":119.1614,"MEAN_ANOMALY":240.9269,"EPHEMERIS_TYPE":0,"CLASSIFICATION_TYPE":"U","NORAD_CAT_ID":67065,"ELEMENT_SET_NO":999,"REV_AT_EPOCH":1485,"BSTAR":0.00015484,"MEAN_MOTION_DOT":-5.2e-7,"MEAN_MOTION_DDOT":0},{"OBJECT_NAME":"HULIANWANG DIGUI-126","OBJECT_ID":"2025-295H","EPOCH":"2026-03-29T02:34:18.344928","MEAN_MOTION":13.29322994,"ECCENTRICITY":1.49e-5,"INCLINATION":49.9998,"RA_OF_ASC_NODE":312.4323,"ARG_OF_PERICENTER":153.2014,"MEAN_ANOMALY":206.8865,"EPHEMERIS_TYPE":0,"CLASSIFICATION_TYPE":"U","NORAD_CAT_ID":67066,"ELEMENT_SET_NO":999,"REV_AT_EPOCH":1485,"BSTAR":0.00014485,"MEAN_MOTION_DOT":-5.7e-7,"MEAN_MOTION_DDOT":0},{"OBJECT_NAME":"HULIANWANG DIGUI-127","OBJECT_ID":"2025-295J","EPOCH":"2026-03-29T02:22:17.018976","MEAN_MOTION":13.293231,"ECCENTRICITY":1.1e-5,"INCLINATION":50.0016,"RA_OF_ASC_NODE":312.409,"ARG_OF_PERICENTER":132.7087,"MEAN_ANOMALY":227.3794,"EPHEMERIS_TYPE":0,"CLASSIFICATION_TYPE":"U","NORAD_CAT_ID":67067,"ELEMENT_SET_NO":999,"REV_AT_EPOCH":1485,"BSTAR":0.00013289,"MEAN_MOTION_DOT":-6.2e-7,"MEAN_MOTION_DDOT":0},{"OBJECT_NAME":"HULIANWANG DIGUI-128","OBJECT_ID":"2025-311A","EPOCH":"2026-03-29T04:42:06.259392","MEAN_MOTION":13.29332369,"ECCENTRICITY":3.15e-5,"INCLINATION":50.0099,"RA_OF_ASC_NODE":42.4119,"ARG_OF_PERICENTER":47.1642,"MEAN_ANOMALY":312.9257,"EPHEMERIS_TYPE":0,"CLASSIFICATION_TYPE":"U","NORAD_CAT_ID":67236,"ELEMENT_SET_NO":999,"REV_AT_EPOCH":1270,"BSTAR":9.9661e-5,"MEAN_MOTION_DOT":-7.8e-7,"MEAN_MOTION_DDOT":0}]
