HULIANWANG DIGUI-113    
1 66923U 25285J   26088.19350079 -.00000083  00000+0  88161-4 0  9995
2 66923  50.0091  72.5697 0000453   9.8835 350.2046 13.29332739 15428
HULIANWANG DIGUI-114    
1 66953U 25287A   26088.13641181  .00000037  00000+0  51990-4 0  9999
2 66953  86.4928 309.4406 0001837  74.8031 285.3306 13.24417623 14742
HULIANWANG DIGUI-115    
1 66954U 25287B   26088.12883708  .00000052  00000+0  87520-4 0  9997
2 66954  86.4944 309.4559 0001861  72.4929 287.6408 13.24417873 14742
HULIANWANG DIGUI-116    
1 66955U 25287C   26088.12128719  .00000057  00000+0  98884-4 0  9992
2 66955  86.4884 309.3812 0001849  71.9494 288.1842 13.24418017 14743
HULIANWANG DIGUI-117    
1 66956U 25287D   26088.11380701  .00000084  00000+0  16180-3 0  9991
2 66956  86.4944 309.4494 0000606 143.5797 216.5379 13.24416208 14740
HULIANWANG DIGUI-118    
1 66957U 25287E   26088.18175968  .00000088  00000+0  17000-3 0  9992
2 66957  86.4920 309.3923 0001847  72.5160 287.6176 13.24417495 14758
HULIANWANG DIGUI-119    
1 67059U 25295A   26088.16563543 -.00000059  00000+0  13942-3 0  9993
2 67059  50.0042 312.7877 0000104 131.1671 228.9210 13.29322821 14855
HULIANWANG DIGUI-120    
1 67060U 25295B   26088.14892673 -.00000059  00000+0  14089-3 0  9995
2 67060  50.0048 312.7060 0000063 143.3280 216.7596 13.29322811 14853
HULIANWANG DIGUI-121    
1 67061U 25295C   26088.15728385 -.00000058  00000+0  14184-3 0  9990
2 67061  50.0009 312.7075 0000092 127.8990 232.1890 13.29322670 14856
HULIANWANG DIGUI-122    
1 67062U 25295D   26088.14057892 -.00000055  00000+0  14906-3 0  9997
2 67062  50.0043 312.6573 0000095 125.8757 234.2124 13.29324231 14857
HULIANWANG DIGUI-123    
1 67063U 25295E   26088.13222675 -.00000051  00000+0  15686-3 0  9992
2 67063  50.0043 312.6170 0000097 124.6073 235.4808 13.29323689 14859
HULIANWANG DIGUI-124    
1 67064U 25295F   26088.12387314 -.00000051  00000+0  15738-3 0  9992
2 67064  50.0003 312.5276 0000068 121.9089 238.1789 13.29321230 14855
HULIANWANG DIGUI-125    
1 67065U 25295G   26088.11551115 -.00000052  00000+0  15484-3 0  9993
2 67065  49.9994 312.4747 0000112 119.1614 240.9269 13.29321856 14855
HULIANWANG DIGUI-126    
1 67066U 25295H   26088.10715677 -.00000057  00000+0  14485-3 0  9993
2 67066  49.9998 312.4323 0000149 153.2014 206.8865 13.29322994 14850
HULIANWANG DIGUI-127    
1 67067U 25295J   26088.09880809 -.00000062  00000+0  13289-3 0  9999
2 67067  50.0016 312.4090 0000110 132.7087 227.3794 13.29323100 14855
HULIANWANG DIGUI-128    
1 67236U 25311A   26088.19590578 -.00000078  00000+0  99661-4 0  9994
2 67236  50.0099  42.4119 0000315  47.1642 312.9257 13.29332369 12703
